{"type": "FeatureCollection", "features": [ {"type": "Feature", "properties": {"norad_id": 42987, "name": "SKYSAT-C11", "group": "resource", "lat": -66.0736444382644, "lon": 156.20585330833092, "alt_km": 430.35689365199687, "timestamp": "2025-12-27T06:41:30.556160+00:00", "meta": {"OBJECT_NAME": "SKYSAT-C11", "OBJECT_ID": "2017-068A", "EPOCH": "2025-12-26T21:40:25.481280", "MEAN_MOTION": 15.4806734, "ECCENTRICITY": 0.00011861, "INCLINATION": 97.415, "RA_OF_ASC_NODE": 138.751, "ARG_OF_PERICENTER": 95.0649, "MEAN_ANOMALY": 265.0736, "EPHEMERIS_TYPE": 0, "CLASSIFICATION_TYPE": "U", "NORAD_CAT_ID": 42987, "ELEMENT_SET_NO": 999, "REV_AT_EPOCH": 45650, "BSTAR": 0.00048181975, "MEAN_MOTION_DOT": 0.00025191, "MEAN_MOTION_DDOT": 0}, "tle": {"line1": "1 42987U 17068A   25360.90307270  .00025191  00000+0  48182-3 0  9999", "line2": "2 42987  97.4150 138.7510 0001186  95.0649 265.0736 15.48067340456509"}}, "geometry": {"type": "Point", "coordinates": [156.20585330833092, -66.0736444382644]}}, {"type": "Feature", "properties": {"norad_id": 42988, "name": "SKYSAT-C10", "group": "resource", "lat": -80.32867978564528, "lon": -177.8895584297778, "alt_km": 479.7511892765724, "timestamp": "2025-12-27T06:41:30.556171+00:00", "meta": {"OBJECT_NAME": "SKYSAT-C10", "OBJECT_ID": "2017-068B", "EPOCH": "2025-12-26T07:32:29.638752", "MEAN_MOTION": 15.31865933, "ECCENTRICITY": 0.0003533, "INCLINATION": 97.4259, "RA_OF_ASC_NODE": 131.2058, "ARG_OF_PERICENTER": 75.9386, "MEAN_ANOMALY": 284.2248, "EPHEMERIS_TYPE": 0, "CLASSIFICATION_TYPE": "U", "NORAD_CAT_ID": 42988, "ELEMENT_SET_NO": 999, "REV_AT_EPOCH": 45587, "BSTAR": 0.00043148, "MEAN_MOTION_DOT": 0.00013208, "MEAN_MOTION_DDOT": 0}, "tle": {"line1": "1 42988U 17068B   25360.31423193  .00013208  00000+0  43148-3 0  9991", "line2": "2 42988  97.4259 131.2058 0003533  75.9386 284.2248 15.31865933455874"}}, "geometry": {"type": "Point", "coordinates": [-177.8895584297778, -80.32867978564528]}}, {"type": "Feature", "properties": {"norad_id": 42989, "name": "SKYSAT-C9", "group": "resource", "lat": -21.244923689398224, "lon": 134.55449877595197, "alt_km": 458.83239017824326, "timestamp": "2025-12-27T06:41:30.556181+00:00", "meta": {"OBJECT_NAME": "SKYSAT-C9", "OBJECT_ID": "2017-068C", "EPOCH": "2025-12-26T21:24:22.573152", "MEAN_MOTION": 15.36412829, "ECCENTRICITY": 0.00101768, "INCLINATION": 97.4191, "RA_OF_ASC_NODE": 131.2605, "ARG_OF_PERICENTER": 42.177, "MEAN_ANOMALY": 318.0255, "EPHEMERIS_TYPE": 0, "CLASSIFICATION_TYPE": "U", "NORAD_CAT_ID": 42989, "ELEMENT_SET_NO": 999, "REV_AT_EPOCH": 45625, "BSTAR": 0.00042464695, "MEAN_MOTION_DOT": 0.00015037, "MEAN_MOTION_DDOT": 0}, "tle": {"line1": "1 42989U 17068C   25360.89192793  .00015037  00000+0  42465-3 0  9997", "line2": "2 42989  97.4191 131.2605 0010176  42.1770 318.0255 15.36412829456256"}}, "geometry": {"type": "Point", "coordinates": [134.55449877595197, -21.244923689398224]}}, {"type": "Feature", "properties": {"norad_id": 42990, "name": "SKYSAT-C8", "group": "resource", "lat": 34.731026830229645, "lon": -43.465082392861966, "alt_km": 464.144706863176, "timestamp": "2025-12-27T06:41:30.556192+00:00", "meta": {"OBJECT_NAME": "SKYSAT-C8", "OBJECT_ID": "2017-068D", "EPOCH": "2025-12-26T20:39:51.012576", "MEAN_MOTION": 15.33236575, "ECCENTRICITY": 9.593e-05, "INCLINATION": 97.4287, "RA_OF_ASC_NODE": 130.9255, "ARG_OF_PERICENTER": 255.1307, "MEAN_ANOMALY": 104.9829, "EPHEMERIS_TYPE": 0, "CLASSIFICATION_TYPE": "U", "NORAD_CAT_ID": 42990, "ELEMENT_SET_NO": 999, "REV_AT_EPOCH": 45587, "BSTAR": 0.00042835283, "MEAN_MOTION_DOT": 0.00013686, "MEAN_MOTION_DDOT": 0}, "tle": {"line1": "1 42990U 17068D   25360.86100709  .00013686  00000+0  42835-3 0  9991", "line2": "2 42990  97.4287 130.9255 0000959 255.1307 104.9829 15.33236575455876"}}, "geometry": {"type": "Point", "coordinates": [-43.465082392861966, 34.731026830229645]}}, {"type": "Feature", "properties": {"norad_id": 42991, "name": "SKYSAT-C7", "group": "resource", "lat": -30.98401524931309, "lon": 136.86908952226452, "alt_km": 470.57437450439375, "timestamp": "2025-12-27T06:41:30.556202+00:00", "meta": {"OBJECT_NAME": "SKYSAT-C7", "OBJECT_ID": "2017-068E", "EPOCH": "2025-12-26T21:25:34.337856", "MEAN_MOTION": 15.32631091, "ECCENTRICITY": 0.00067463, "INCLINATION": 97.4295, "RA_OF_ASC_NODE": 131.9873, "ARG_OF_PERICENTER": 11.5715, "MEAN_ANOMALY": 348.5681, "EPHEMERIS_TYPE": 0, "CLASSIFICATION_TYPE": "U", "NORAD_CAT_ID": 42991, "ELEMENT_SET_NO": 999, "REV_AT_EPOCH": 45594, "BSTAR": 0.00041025663, "MEAN_MOTION_DOT": 0.00012865, "MEAN_MOTION_DDOT": 0}, "tle": {"line1": "1 42991U 17068E   25360.89275854  .00012865  00000+0  41026-3 0  9998", "line2": "2 42991  97.4295 131.9873 0006746  11.5715 348.5681 15.32631091455941"}}, "geometry": {"type": "Point", "coordinates": [136.86908952226452, -30.98401524931309]}}, {"type": "Feature", "properties": {"norad_id": 42992, "name": "SKYSAT-C6", "group": "resource", "lat": 41.30195989481199, "lon": 126.21535122318812, "alt_km": 464.02823142067245, "timestamp": "2025-12-27T06:41:30.556213+00:00", "meta": {"OBJECT_NAME": "SKYSAT-C6", "OBJECT_ID": "2017-068F", "EPOCH": "2025-12-26T21:06:12.822912", "MEAN_MOTION": 15.31783145, "ECCENTRICITY": 0.00046775, "INCLINATION": 97.4325, "RA_OF_ASC_NODE": 132.4007, "ARG_OF_PERICENTER": 43.8732, "MEAN_ANOMALY": 316.288, "EPHEMERIS_TYPE": 0, "CLASSIFICATION_TYPE": "U", "NORAD_CAT_ID": 42992, "ELEMENT_SET_NO": 999, "REV_AT_EPOCH": 45592, "BSTAR": 0.00040063761, "MEAN_MOTION_DOT": 0.00012227, "MEAN_MOTION_DDOT": 0}, "tle": {"line1": "1 42992U 17068F   25360.87931508  .00012227  00000+0  40064-3 0  9995", "line2": "2 42992  97.4325 132.4007 0004677  43.8732 316.2880 15.31783145455927"}}, "geometry": {"type": "Point", "coordinates": [126.21535122318812, 41.30195989481199]}}, {"type": "Feature", "properties": {"norad_id": 43111, "name": "CARTOSAT-2F", "group": "resource", "lat": -40.789697914246325, "lon": -127.78609379784963, "alt_km": 515.0673786926736, "timestamp": "2025-12-27T06:41:30.556226+00:00", "meta": {"OBJECT_NAME": "CARTOSAT-2F", "OBJECT_ID": "2018-004A", "EPOCH": "2025-12-26T23:23:55.521024", "MEAN_MOTION": 15.19262099, "ECCENTRICITY": 0.00016141, "INCLINATION": 97.4297, "RA_OF_ASC_NODE": 58.3802, "ARG_OF_PERICENTER": 111.5127, "MEAN_ANOMALY": 248.628, "EPHEMERIS_TYPE": 0, "CLASSIFICATION_TYPE": "U", "NORAD_CAT_ID": 43111, "ELEMENT_SET_NO": 999, "REV_AT_EPOCH": 44118, "BSTAR": 0.00024026929, "MEAN_MOTION_DOT": 4.998e-05, "MEAN_MOTION_DDOT": 0}, "tle": {"line1": "1 43111U 18004A   25360.97494816  .00004998  00000+0  24027-3 0  9994", "line2": "2 43111  97.4297  58.3802 0001614 111.5127 248.6280 15.19262099441188"}}, "geometry": {"type": "Point", "coordinates": [-127.78609379784963, -40.789697914246325]}}, {"type": "Feature", "properties": {"norad_id": 43259, "name": "GAOFEN-1 02", "group": "resource", "lat": -81.9131390622261, "lon": 147.44591957520444, "alt_km": 648.4236395468297, "timestamp": "2025-12-27T06:41:30.556238+00:00", "meta": {"OBJECT_NAME": "GAOFEN-1 02", "OBJECT_ID": "2018-031A", "EPOCH": "2025-12-26T22:57:56.104704", "MEAN_MOTION": 14.76444266, "ECCENTRICITY": 0.0002743, "INCLINATION": 98.0783, "RA_OF_ASC_NODE": 58.7495, "ARG_OF_PERICENTER": 166.0748, "MEAN_ANOMALY": 194.0538, "EPHEMERIS_TYPE": 0, "CLASSIFICATION_TYPE": "U", "NORAD_CAT_ID": 43259, "ELEMENT_SET_NO": 999, "REV_AT_EPOCH": 41728, "BSTAR": 0.00013854082, "MEAN_MOTION_DOT": 9.12e-06, "MEAN_MOTION_DDOT": 0}, "tle": {"line1": "1 43259U 18031A   25360.95689936  .00000912  00000+0  13854-3 0  9992", "line2": "2 43259  98.0783  58.7495 0002743 166.0748 194.0538 14.76444266417282"}}, "geometry": {"type": "Point", "coordinates": [147.44591957520444, -81.9131390622261]}}, {"type": "Feature", "properties": {"norad_id": 43260, "name": "GAOFEN-1 03", "group": "resource", "lat": 25.94188362514888, "lon": 54.985909757898284, "alt_km": 640.6240364967698, "timestamp": "2025-12-27T06:41:30.556248+00:00", "meta": {"OBJECT_NAME": "GAOFEN-1 03", "OBJECT_ID": "2018-031B", "EPOCH": "2025-12-26T22:26:26.755296", "MEAN_MOTION": 14.7642766, "ECCENTRICITY": 0.0001661, "INCLINATION": 98.0779, "RA_OF_ASC_NODE": 58.6039, "ARG_OF_PERICENTER": 249.6116, "MEAN_ANOMALY": 110.4915, "EPHEMERIS_TYPE": 0, "CLASSIFICATION_TYPE": "U", "NORAD_CAT_ID": 43260, "ELEMENT_SET_NO": 999, "REV_AT_EPOCH": 41727, "BSTAR": 0.00014538022, "MEAN_MOTION_DOT": 9.59e-06, "MEAN_MOTION_DDOT": 0}, "tle": {"line1": "1 43260U 18031B   25360.93503189  .00000959  00000+0  14538-3 0  9998", "line2": "2 43260  98.0779  58.6039 0001661 249.6116 110.4915 14.76427660417276"}}, "geometry": {"type": "Point", "coordinates": [54.985909757898284, 25.94188362514888]}}, {"type": "Feature", "properties": {"norad_id": 43262, "name": "GAOFEN-1 04", "group": "resource", "lat": 24.377451231552037, "lon": -117.19203167578004, "alt_km": 639.9659303588942, "timestamp": "2025-12-27T06:41:30.556261+00:00", "meta": {"OBJECT_NAME": "GAOFEN-1 04", "OBJECT_ID": "2018-031D", "EPOCH": "2025-12-26T23:29:05.506080", "MEAN_MOTION": 14.76433492, "ECCENTRICITY": 4.759e-05, "INCLINATION": 98.0784, "RA_OF_ASC_NODE": 58.8175, "ARG_OF_PERICENTER": 70.9035, "MEAN_ANOMALY": 289.2225, "EPHEMERIS_TYPE": 0, "CLASSIFICATION_TYPE": "U", "NORAD_CAT_ID": 43262, "ELEMENT_SET_NO": 999, "REV_AT_EPOCH": 41727, "BSTAR": 9.3031406e-05, "MEAN_MOTION_DOT": 5.95e-06, "MEAN_MOTION_DDOT": 0}, "tle": {"line1": "1 43262U 18031D   25360.97853595  .00000595  00000+0  93031-4 0  9995", "line2": "2 43262  98.0784  58.8175 0000475  70.9035 289.2225 14.76433492417273"}}, "geometry": {"type": "Point", "coordinates": [-117.19203167578004, 24.377451231552037]}}]}